{
  "norad_id": 57867,
  "name": "STARLINK-30439",
  "history": [
    {
      "epoch": "2026-03-28T14:57:28.560672",
      "apogee_km": 484.49546671184544,
      "perigee_km": 481.4203239797507,
      "latitude_deg": 37.30887144556271,
      "longitude_deg": 26.531734080053866,
      "semi_major_axis_km": 6861.094895345797,
      "eccentricity": 0.0002241,
      "inclination_deg": 43.0034,
      "raan_deg": 178.2251,
      "arg_perigee_deg": 274.5827,
      "mean_anomaly_deg": 85.4769,
      "mean_motion_rev_day": 15.27610458
    }
  ]
}